73P-AK/Schwassmann-Wachmann,e,11.389,69.784,198.822,3.06244,0.183909,0.6933024,359.927,06/08.0/2006,2000,g  9.0,4.0
# From MPC 56799
73P-AL/Schwassmann-Wachmann,e,11.395,69.843,198.857,3.06140,0.184003,0.6933024,359.916,06/08.0/2006,2000,g  9.0,4.0
# From MPC 56799
73P-AM/Schwassmann-Wachmann,e,11.394,69.876,198.815,3.06205,0.183944,0.6933024,359.951,06/08.0/2006,2000,g  9.0,4.0
# From MPC 56799
73P-AN/Schwassmann-Wachmann,e,11.393,69.870,198.820,3.06185,0.183962,0.6933024,359.940,06/08.0/2006,2000,g  9.0,4.0
# From MPC 56799
73P-AO/Schwassmann-Wachmann,e,11.210,71.286,197.007,3.07823,0.182496,0.6933024,359.853,06/07.0/2006,2000,g  9.0,4.0
# From MPC 56799
73P-AP/Schwassmann-Wachmann,e,11.393,69.895,198.794,3.06223,0.183928,0.6933024,359.874,06/06.0/2006,2000,g  9.0,4.0
# From MPC 56799
73P-AQ/Schwassmann-Wachmann,e,11.387,69.911,198.770,3.06230,0.183921,0.6933024,359.831,06/07.0/2006,2000,g  9.0,4.0
# From MPC 56799
73P-AR/Schwassmann-Wachmann,e,11.385,69.946,198.722,3.06285,0.183872,0.6933024,359.847,06/06.0/2006,2000,g  9.0,4.0
# From MPC 56799
73P-AS/Schwassmann-Wachmann,e,11.392,69.906,198.773,3.06237,0.183915,0.6933024,359.938,06/06.0/2006,2000,g  9.0,4.0
# From MPC 56799
73P-AT/Schwassmann-Wachmann,e,11.391,69.901,198.778,3.06248,0.183905,0.6933024,359.958,06/06.0/2006,2000,g  9.0,4.0
# From MPC 56799
73P-AU/Schwassmann-Wachmann,e,11.385,69.928,198.744,3.06261,0.183894,0.6933024,359.983,06/08.0/2006,2000,g  9.0,4.0
# From MPC 56800
73P-AV/Schwassmann-Wachmann,e,11.388,69.945,198.751,3.06263,0.183892,0.6933024,359.910,06/06.0/2006,2000,g  9.0,4.0
# From MPC 56800
73P-AW/Schwassmann-Wachmann,e,11.377,69.982,198.673,3.06318,0.183843,0.6933024,359.859,06/07.0/2006,2000,g  9.0,4.0
# From MPC 56800
73P-AX/Schwassmann-Wachmann,e,11.388,69.915,198.757,3.06205,0.183944,0.6933024,359.902,06/09.0/2006,2000,g  9.0,4.0
# From MPC 56800
73P-AY/Schwassmann-Wachmann,e,11.385,69.923,198.750,3.06223,0.183927,0.6933024,359.860,06/08.0/2006,2000,g  9.0,4.0
# From MPC 56800
73P-AZ/Schwassmann-Wachmann,e,11.371,70.002,198.644,3.06367,0.183798,0.6933024,359.905,06/06.0/2006,2000,g  9.0,4.0
# From MPC 56800
73P-BA/Schwassmann-Wachmann,e,11.364,70.042,198.588,3.06413,0.183756,0.6933024,359.920,06/06.0/2006,2000,g  9.0,4.0
# From MPC 56800
73P-BB/Schwassmann-Wachmann,e,11.395,69.882,198.807,3.06205,0.183944,0.6933024,359.984,06/07.0/2006,2000,g  9.0,4.0
# From MPC 56800
73P-BC/Schwassmann-Wachmann,e,11.391,69.901,198.778,3.06235,0.183917,0.6933024,359.877,06/06.0/2006,2000,g  9.0,4.0
# From MPC 56800
73P-BD/Schwassmann-Wachmann,e,11.352,70.085,198.503,3.06483,0.183694,0.6933024,359.923,06/06.0/2006,2000,g  9.0,4.0
# From MPC 56800
73P-BE/Schwassmann-Wachmann,e,11.405,69.841,198.861,3.06171,0.183975,0.6933024,359.841,06/06.0/2006,2000,g  9.0,4.0
# From MPC 56800
73P-BF/Schwassmann-Wachmann,e,11.390,69.908,198.752,3.06223,0.183928,0.6933024,359.818,06/06.0/2006,2000,g  9.0,4.0
# From MPC 56800
73P-BG/Schwassmann-Wachmann,e,11.384,69.925,198.750,3.06214,0.183936,0.6933024,359.864,06/08.0/2006,2000,g  9.0,4.0
# From MPC 56801
73P-BH/Schwassmann-Wachmann,e,11.410,69.752,198.947,3.06079,0.184058,0.6933024,359.895,06/08.0/2006,2000,g  9.0,4.0
# From MPC 56801
73P-BI/Schwassmann-Wachmann,e,11.404,69.819,198.877,3.06179,0.183967,0.6933024,359.882,06/08.0/2006,2000,g  9.0,4.0
# From MPC 56801
73P-BJ/Schwassmann-Wachmann,e,11.389,69.905,198.776,3.06209,0.183941,0.6933024,359.877,06/08.0/2006,2000,g  9.0,4.0
# From MPC 56801
73P-BK/Schwassmann-Wachmann,e,11.379,69.970,198.698,3.06264,0.183891,0.6933024,359.837,06/08.0/2006,2000,g  9.0,4.0
# From MPC 56801
73P-BL/Schwassmann-Wachmann,e,11.385,69.930,198.739,3.06239,0.183914,0.6933024,359.837,06/08.0/2006,2000,g  9.0,4.0
# From MPC 56801
73P-BM/Schwassmann-Wachmann,e,11.364,70.086,198.546,3.06367,0.183798,0.6933024,359.827,06/08.0/2006,2000,g  9.0,4.0
# From MPC 56801
73P-BN/Schwassmann-Wachmann,e,11.398,69.871,198.815,3.06180,0.183967,0.6933024,359.963,06/08.0/2006,2000,g  9.0,4.0
# From MPC 56801
73P-BO/Schwassmann-Wachmann,e,11.390,69.903,198.765,3.06206,0.183943,0.6933024,359.952,06/08.0/2006,2000,g  9.0,4.0
# From MPC 56801
73P-BP/Schwassmann-Wachmann,e,11.395,69.881,198.807,3.06196,0.183952,0.6933024,359.944,06/08.0/2006,2000,g  9.0,4.0
# From MPC 56801
73P-BQ/Schwassmann-Wachmann,e,11.404,69.836,198.862,3.06166,0.183979,0.6933024,359.945,06/08.0/2006,2000,g  9.0,4.0
# From MPC 56957
73P-BR/Schwassmann-Wachmann,e,11.389,69.910,198.774,3.06233,0.183918,0.6933024,359.971,06/06.0/2006,2000,g  9.0,4.0
# From MPC 56957
73P-BS/Schwassmann-Wachmann,e,11.399,69.885,198.814,3.06224,0.183927,0.6933024,359.847,06/05.0/2006,2000,g  9.0,4.0
# From MPC106348
73P-BT/Schwassmann-Wachmann,e,11.1176,198.7629,69.9488,3.084023,0.1819817,0.69126476,127.7880,08/01.0/2024,2000,g 11.5,6.0
# From MPEC 2022-P18
73P-BU/Schwassmann-Wachmann,e,11.0253,199.5485,70.7655,2.869737,0.2027407,0.67008065,143.0100,08/01.0/2024,2000,g 19.0,4.0
# From MPEC 2022-X67
73P-BV/Schwassmann-Wachmann,e,11.3563,69.3882,198.9900,3.131109,0.1778922,0.69806388,125.1044,08/01.0/2024,2000,g 19.0,4.0
# From MPEC 2022-R15
73P-BW/Schwassmann-Wachmann,e,10.2926,193.6807,71.0510,4.535048,0.1020543,0.78825641,72.0176,08/01.0/2024,2000,g 18.2,4.0
# From MPEC 2023-A50
73P-BX/Schwassmann-Wachmann,e,11.3672,69.3851,199.0279,3.111165,0.1796054,0.69577387,126.2671,08/01.0/2024,2000,g 17.5,4.0
# From MPEC 2022-R15
73P-BY/Schwassmann-Wachmann,e,11.1086,198.8784,70.0217,3.025389,0.1872976,0.68522673,132.1072,08/01.0/2024,2000,g 17.4,4.0
# From MPEC 2024-EF7
74P/Smirnova-Chernykh,e,6.4328,53.7229,107.0674,4.901615,0.0908229,0.03454830,257.5484,08/01.0/2024,2000,g  5.0,6.0
# From CCO 7
75D/Kohoutek,e,5.9261,269.5526,175.5598,3.537231,0.1481525,0.49940177,183.9558,08/01.0/2024,2000,g  9.5,6.0
# From MPEC 2022-K19
76P/West-Kohoutek-Ikemura,e,30.4883,84.1119,359.9657,3.468637,0.1525689,0.53936120,265.3244,08/01.0/2024,2000,g  8.0,12.0
# From MPEC 2024-P23
77P/Longmore,e,24.3193,14.7590,196.6653,3.621665,0.1430018,0.35166091,69.5143,08/01.0/2024,2000,g  7.0,8.0
# From MPEC 2021-O56
78P/Gehrels,e,6.2566,210.5285,192.7058,3.735065,0.1365391,0.46318540,265.3760,08/01.0/2024,2000,g  5.5,8.0
# From MPC 94675
79P/du Toit-Hartley,e,3.1489,281.7724,280.5162,2.943416,0.1951761,0.61919647,59.6569,08/01.0/2024,2000,g 16.0,4.0
# From MPEC 2023-RF3
80P/Peters-Hartley,e,29.9249,259.7778,339.2858,4.022620,0.1221632,0.59805130,73.4621,08/01.0/2024,2000,g  9.0,8.0
# From MPEC 2024-P23
81P/Wild,e,3.2372,136.0937,41.5757,3.452395,0.1536467,0.53733878,91.3288,08/01.0/2024,2000,g  7.0,6.0
# From MPC133426
82P/Gehrels,e,1.1292,239.2269,226.4349,4.132035,0.1173432,0.12256186,261.7851,08/01.0/2024,2000,g 15.0,4.0
# From NK 932
83D/Russell,e,17.8272,226.3027,334.4164,3.843811,0.1307860,0.44129935,152.6056,08/01.0/2024,2000,g  9.0,4.0
# From MPEC 2020-FB5
84P/Giclas,e,7.5517,108.1527,281.6649,3.550116,0.1473467,0.51595809,223.6612,08/01.0/2024,2000,g  9.5,8.0
# From unp
85D/Boethin,e,4.1741,65.2852,333.0808,5.044821,0.0869832,0.77621476,127.2226,08/01.0/2024,2000,g  6.5,8.0
# From MPEC 2022-YB4
86P/Wild,e,15.5303,72.0835,180.8309,3.630846,0.1424598,0.36838508,128.9568,08/01.0/2024,2000,g 11.0,6.0
# From MPEC 2020-SI8
87P/Bus,e,2.7083,186.3291,51.5718,4.311566,0.1100909,0.22979222,173.8000,08/01.0/2024,2000,g  7.2,10.0
# From MPEC 2024-C04
88P/Howell,e,4.3820,56.6671,235.9084,3.107539,0.1799199,0.56317949,252.9729,08/01.0/2024,2000,g 11.0,6.0
# From MPEC 2024-P23
89P/Russell,e,12.0721,41.3444,250.4005,3.751005,0.1356696,0.40766710,17.2844,08/01.0/2024,2000,g 11.5,6.0
# From MPEC 2022-K19
90P/Gehrels,e,9.6457,13.2084,29.1352,6.052554,0.0661906,0.51103600,171.7775,08/01.0/2024,2000,g  8.5,6.0
# From MPEC 2023-VM5
91P/Russell,e,16.7073,242.7100,359.1403,4.020968,0.1222385,0.29217832,175.7826,08/01.0/2024,2000,g  7.5,6.0
# From MPEC 2014-J58
92P/Sanguin,e,19.4899,181.3744,163.7984,5.343095,0.0798022,0.66036936,273.9658,08/01.0/2024,2000,g 12.0,6.0
# From NK 2707
93P/Lovas,e,12.2062,339.5695,74.9737,4.376375,0.1076545,0.61402230,291.1185,08/01.0/2024,2000,g  9.0,4.0
# From MPEC 2024-F91
94P/Russell,e,6.1880,70.8519,92.3917,3.510477,0.1498494,0.36574731,65.6272,08/01.0/2024,2000,g  9.0,6.0
# From MPC 75717
95P/Chiron,e,6.9236,209.1977,339.3779,13.70737,0.0194211,0.37720026,203.4294,08/01.0/2024,2000,g  6.5,2.0
# From MPEC 2023-N01
96P/Machholz,e,57.5634,93.9579,14.7390,3.030943,0.1867830,0.96165097,102.3304,08/01.0/2024,2000,g 13.0,4.8
# From MPC106348
96P-B/Machholz,e,57.5028,14.6902,93.9646,3.030058,0.1868649,0.96167013,102.3800,08/01.0/2024,2000,g 13.0,4.8
# From MPC103849
96P-C/Machholz,e,58.5311,94.3495,15.5380,3.011920,0.1885553,0.95889850,359.8715,07/14.0/2012,2000,g  9.0,4.0
# From MPEC 2024-GJ3
97P/Metcalf-Brewington,e,17.9462,184.0802,230.1309,4.767522,0.0946815,0.46024425,84.9257,08/01.0/2024,2000,g  5.5,6.0
# From MPEC 2021-W31
98P/Takamizawa,e,10.5812,114.6073,157.7145,3.788336,0.1336692,0.56321073,174.4399,08/01.0/2024,2000,g  9.0,8.0
# From MPEC 2024-P23
99P/Kowal,e,4.3392,28.0870,174.6219,6.095941,0.0654852,0.22854549,55.2896,08/01.0/2024,2000,g  4.5,6.0
# From MPEC 2023-OA6
100P/Hartley,e,25.5674,37.6855,181.9616,3.430560,0.1551160,0.41152504,111.8944,08/01.0/2024,2000,g  9.0,8.0
# From MPEC 2024-EF7
101P/Chernykh,e,5.0489,116.1487,277.9171,5.814637,0.0702943,0.59610796,116.7964,08/01.0/2024,2000,g 10.0,4.8
# From MPC105241
101P-B/Chernykh,e,5.0500,278.5320,115.5366,5.830146,0.0700140,0.59631868,115.0863,08/01.0/2024,2000,g  9.0,4.0
# From MPEC 2022-C56
102P/Shoemaker,e,25.8655,339.4079,20.6725,3.818944,0.1320654,0.45644550,169.9318,08/01.0/2024,2000,g  6.5,8.0
# From MPEC 2024-NE4
103P/Hartley,e,13.6105,219.7498,181.3084,3.474687,0.1521705,0.69369891,44.6618,08/01.0/2024,2000,g  8.5,8.0
# From MPEC 2023-G31
104P/Kowal,e,5.7027,207.2042,227.2670,3.208702,0.1714786,0.66591232,159.8074,08/01.0/2024,2000,g 16.0,4.0
# From MPEC 2024-F34
105P/SingerBrewster,e,9.1680,192.3983,46.3465,3.472080,0.1523419,0.40898948,333.3708,08/01.0/2024,2000,g 11.5,6.0
# From MPEC 2023-UR6
